NORAD_CAT_ID,OBJECT_NAME,OBJECT_TYPE,EPOCH,MEAN_MOTION,ECCENTRICITY,INCLINATION,RA_OF_ASC_NODE,ARG_OF_PERICENTER,MEAN_ANOMALY,BSTAR,MEAN_MOTION_DOT,MEAN_MOTION_DDOT,TLE_LINE0,TLE_LINE1,TLE_LINE2,SEMIMAJOR_AXIS,PERIOD,APOGEE,PERIGEE,DECAYED
53901.0,STARLINK-5024,PAYLOAD,2022-09-30 12:00:00,15.89658031,0.0034184,53.2173,225.9708,62.5078,346.2637,-0.0041041,-0.01301472,0.00048293,0 STARLINK-5024,1 53901U 22119R   22273.50001157 -.01301472  48293-3 -41041-2 0  9999,2 53901  53.2173 225.9708 0034184  62.5078 346.2637 15.89658031  1303,6681.378000000002,90.586,326.083,280.403,0.0
53901.0,STARLINK-5024,PAYLOAD,2022-09-30 22:00:00,15.88703021,0.002921,53.2189,223.8597,64.5295,209.2611,-0.0051244,-0.01522731,0.00063746,0 STARLINK-5024,1 53901U 22119R   22273.91667824 -.01522731  63746-3 -51244-2 0  9992,2 53901  53.2189 223.8597 0029210  64.5295 209.2611 15.88703021  1309,6684.055,90.64,325.444,286.396,0.0
53901.0,STARLINK-5024,PAYLOAD,2022-10-01 06:00:00,15.87793499,0.0026000999999999,53.2191,222.1758,64.6056,316.0946,-0.0051388999999999,-0.01448082,0.00057664,0 STARLINK-5024,1 53901U 22119R   22274.25001157 -.01448082  57664-3 -51389-2 0  9999,2 53901  53.2191 222.1758 0026001  64.6056 316.0946 15.87793499  1411,6686.607,90.692,325.858,291.087,0.0
53901.0,STARLINK-5024,PAYLOAD,2022-10-01 14:00:01,15.869107199999998,0.0022654,53.2188,220.4901,64.5059,62.0508,-0.0053086999999999,-0.01421878,0.00055325,0 STARLINK-5024,1 53901U 22119R   22274.58334491 -.01421878  55325-3 -53087-2 0  9998,2 53901  53.2188 220.4901 0022654  64.5059  62.0508 15.86910720  1475,6689.087,90.742,326.105,295.7990000000001,0.0
53901.0,STARLINK-5024,PAYLOAD,2022-10-01 22:00:00,15.86098788,0.0018327999999999,53.2185,218.8074,65.8023,165.5347,-0.0059636,-0.0135316,0.0,0 STARLINK-5024,1 53901U 22119R   22274.91667824 -.01353160  00000-0 -59636-2 0  9995,2 53901  53.2185 218.8074 0018328  65.8023 165.5347 15.86098788  1529,6691.37,90.789,325.499,300.971,0.0
53901.0,STARLINK-5024,PAYLOAD,2022-10-02 12:00:02,15.84480946,0.001182,53.2175,215.8684,62.585,259.7695,-0.0058265,-0.01223141,0.0,0 STARLINK-5024,1 53901U 22119R   22275.50002315 -.01223141  00000-0 -58265-2 0  9991,2 53901  53.2175 215.8684 0011820  62.5850 259.7695 15.84480946  1615,6695.924,90.881,325.703,309.874,0.0
53901.0,STARLINK-5024,PAYLOAD,2022-10-02 14:00:01,15.84203417,0.0011417999999999,53.2188,215.4502,62.319,15.5764,-0.0054147,-0.01111505,0.0,0 STARLINK-5024,1 53901U 22119R   22275.58334491 -.01111505  00000-0 -54147-2 0  9997,2 53901  53.2188 215.4502 0011418  62.3190  15.5764 15.84203417  1309,6696.706,90.897,326.217,310.9240000000001,0.0
53901.0,STARLINK-5024,PAYLOAD,2022-10-02 22:00:00,15.834444,0.0007922,53.2187,213.7743,59.72,119.7992,-0.0064536,-0.01275832,0.0,0 STARLINK-5024,1 53901U 22119R   22275.91667824 -.01275832  00000-0 -64536-2 0  9990,2 53901  53.2187 213.7743 0007922  59.7200 119.7992 15.83444400  1301,6698.846,90.941,326.017,315.404,0.0
53901.0,STARLINK-5024,PAYLOAD,2022-10-03 04:00:01,15.82729921,0.000552,53.2175,212.5193,50.3236,114.8663,-0.0062036999999999,-0.01192617,0.0,0 STARLINK-5024,1 53901U 22119R   22276.16668981 -.01192617  00000-0 -62037-2 0  9996,2 53901  53.2175 212.5193 0005520  50.3236 114.8663 15.82729921  1722,6700.861,90.982,326.425,319.027,0.0
53901.0,STARLINK-5024,PAYLOAD,2022-10-03 12:00:00,15.81885329,0.0002268,53.2173,210.8463,19.9597,245.0083,-0.006705,-0.01230788,0.0,0 STARLINK-5024,1 53901U 22119R   22276.50001157 -.01230788  00000-0 -67050-2 0  9992,2 53901  53.2173 210.8463 0002268  19.9597 245.0083 15.81885329  1770,6703.246,91.031,326.632,323.591,0.0
53901.0,STARLINK-5024,PAYLOAD,2022-10-03 14:00:01,15.81711038,0.0001936,53.2186,210.4303,348.7611,30.9813,-0.0070483,-0.01276808,0.0,0 STARLINK-5024,1 53901U 22119R   22276.58334491 -.01276808  00000-0 -70483-2 0  9997,2 53901  53.2186 210.4303 0001936 348.7611  30.9813 15.81711038  1300,6703.739000000001,91.041,326.902,324.306,0.0
53901.0,STARLINK-5024,PAYLOAD,2022-10-03 22:00:00,15.80821539,0.0003671,53.2183,208.7606,285.5962,192.7032,-0.0071391,-0.01245882,0.0,0 STARLINK-5024,1 53901U 22119R   22276.91667824 -.01245882  00000-0 -71391-2 0  9990,2 53901  53.2183 208.7606 0003671 285.5962 192.7032 15.80821539  1305,6706.253000000002,91.092,330.58,325.656,0.0
53901.0,STARLINK-5024,PAYLOAD,2022-10-04 04:00:00,15.80120977,0.0005784,53.2176,207.5102,276.0013,185.5487,-0.0069483,-0.01183246,0.0,0 STARLINK-5024,1 53901U 22119R   22277.16667824 -.01183246  00000-0 -69483-2 0  9992,2 53901  53.2176 207.5102 0005784 276.0013 185.5487 15.80120977  1889,6708.235,91.132,333.98,326.22,0.0
53901.0,STARLINK-5024,PAYLOAD,2022-10-04 14:00:01,15.79032663,0.0006231,53.2176,205.4268,268.7894,43.5025,-0.0072612,-0.01177239,0.0,0 STARLINK-5024,1 53901U 22119R   22277.58334491 -.01177239  00000-0 -72612-2 0  9992,2 53901  53.2176 205.4268 0006231 268.7894  43.5025 15.79032663  1302,6711.316999999999,91.195,337.3640000000001,329.0,0.0
53901.0,STARLINK-5024,PAYLOAD,2022-10-04 20:00:01,15.78378008,0.0004022999999999,53.2176,204.1793,267.6793,26.2749,-0.0074338,-0.01168831,0.0,0 STARLINK-5024,1 53901U 22119R   22277.83334491 -.01168831  00000-0 -74338-2 0  9995,2 53901  53.2176 204.1793 0004023 267.6793  26.2749 15.78378008  1984,6713.1730000000025,91.233,337.7390000000001,332.337,0.0
53901.0,STARLINK-5024,PAYLOAD,2022-10-04 22:00:00,15.78088128,0.000339,53.2185,203.7661,277.2502,130.4999,-0.0069209999999999,-0.0108307,0.0,0 STARLINK-5024,1 53901U 22119R   22277.91667824 -.01083070  00000-0 -69210-2 0  9997,2 53901  53.2185 203.7661 0003390 277.2502 130.4999 15.78088128  1306,6713.995,91.25,338.136,333.584,0.0
53901.0,STARLINK-5024,PAYLOAD,2022-10-05 04:00:00,15.77593025,7.2e-05,53.2186,202.5226,294.4498,94.0984,-0.0085377999999999,-0.01301666,0.0,0 STARLINK-5024,1 53901U 22119R   22278.16667824 -.01301666  00000-0 -85378-2 0  9992,2 53901  53.2186 202.5226 0000720 294.4498  94.0984 15.77593025  2036,6715.4,91.278,337.7480000000001,336.781,0.0
53901.0,STARLINK-5024,PAYLOAD,2022-10-05 14:00:01,15.76458192,0.0001075,53.2183,200.4465,59.0509,176.4191,-0.0085002,-0.0121746,0.0,0 STARLINK-5024,1 53901U 22119R   22278.58335648 -.01217460  00000-0 -85002-2 0  9996,2 53901  53.2183 200.4465 0001075  59.0509 176.4191 15.76458192  1305,6718.621999999999,91.344,341.209,339.765,0.0
53901.0,STARLINK-5024,PAYLOAD,2022-10-05 20:00:01,15.75799139,0.0001266,53.2185,199.2042,83.9436,130.7782,-0.0086512,-0.01204985,0.0,0 STARLINK-5024,1 53901U 22119R   22278.83334491 -.01204985  00000-0 -86512-2 0  9994,2 53901  53.2185 199.2042 0001266  83.9436 130.7782 15.75799139  2140,6720.495,91.382,343.211,341.509,0.0
53901.0,STARLINK-5024,PAYLOAD,2022-10-05 22:00:00,15.75574771,0.0001069,53.2182,198.7903,81.308,246.3923,-0.0086706,-0.01196691,0.0,0 STARLINK-5024,1 53901U 22119R   22278.91667824 -.01196691  00000-0 -86706-2 0  9991,2 53901  53.2182 198.7903 0001069  81.3080 246.3923 15.75574771  1306,6721.1330000000025,91.395,343.717,342.28,0.0
53901.0,STARLINK-5024,PAYLOAD,2022-10-06 14:00:01,15.73692045,0.0001216,53.2175,195.4819,72.5817,76.5874,-0.0044429,-0.00594448,0.0,0 STARLINK-5024,1 53901U 22119R   22279.58334491 -.00594448  00000-0 -44429-2 0  9993,2 53901  53.2175 195.4819 0001216  72.5817  76.5874 15.73692045  1303,6726.493,91.505,349.176,347.54,0.0
53901.0,STARLINK-5024,PAYLOAD,2022-10-06 22:00:00,15.73201231,0.0001277,53.2176,193.8326,78.1044,160.3285,3.3557e-05,4.092e-05,0.0,0 STARLINK-5024,1 53901U 22119R   22279.91667824  .00004092  00000-0  33557-4 0  9990,2 53901  53.2176 193.8326 0001277  78.1044 160.3285 15.73201231  2313,6727.892,91.533,350.616,348.898,0.0
53901.0,STARLINK-5024,PAYLOAD,2022-10-06 22:42:55,15.73204728,0.0001143,53.2175,193.6854,79.3534,327.9011,-4.8108e-06,-1.295e-05,0.0,0 STARLINK-5024,1 53901U 22119R   22279.94646991 -.00001295  00000-0 -48108-5 0  9998,2 53901  53.2175 193.6854 0001143  79.3534 327.9011 15.73204728  1305,6727.882,91.533,350.516,348.978,0.0
53901.0,STARLINK-5024,PAYLOAD,2022-10-07 04:00:00,15.73216407,9.51e-05,53.2236,192.6121,78.3971,136.7652,0.00070009,0.00098864,0.0,0 STARLINK-5024,1 53901U 22119R   22280.16667824  .00098864  00000-0  70009-3 0  9991,2 53901  53.2236 192.6121 0000951  78.3971 136.7652 15.73216407  2359,6727.848000000001,91.532,350.353,349.074,0.0
53901.0,STARLINK-5024,PAYLOAD,2022-10-07 12:00:00,15.733023199999998,9.28e-05,53.2231,190.961,94.8574,209.2932,-0.00067006,-0.00094019,0.0,0 STARLINK-5024,1 53901U 22119R   22280.50001157 -.00094019  00000-0 -67006-3 0  9993,2 53901  53.2231 190.9610 0000928  94.8574 209.2932 15.73302320  2407,6727.603,91.527,350.093,348.844,0.0
53901.0,STARLINK-5024,PAYLOAD,2022-10-07 14:00:01,15.73256536,9.18e-05,53.2229,190.5482,99.6043,316.8162,-0.00018942,-0.00027181,0.0,0 STARLINK-5024,1 53901U 22119R   22280.58334491 -.00027181  00000-0 -18942-3 0  9992,2 53901  53.2229 190.5482 0000918  99.6043 316.8162 15.73256536  1305,6727.734,91.53,350.217,348.981,0.0
53901.0,STARLINK-5024,PAYLOAD,2022-10-07 22:00:00,15.73255929,0.0001054,53.2226,188.8999,92.7493,52.6382,-0.0013112,-0.00181156,0.0,0 STARLINK-5024,1 53901U 22119R   22280.91667824 -.00181156  00000-0 -13112-2 0  9994,2 53901  53.2226 188.8999 0001054  92.7493  52.6382 15.73255929  1304,6727.736,91.53,350.31,348.892,0.0
53901.0,STARLINK-5024,PAYLOAD,2022-10-08 12:00:00,15.73110776,8.159999999999999e-05,53.2204,186.0134,98.4532,112.4704,0.00067784,0.00095228,0.0,0 STARLINK-5024,1 53901U 22119R   22281.50001157  .00095228  00000-0  67784-3 0  9998,2 53901  53.2204 186.0134 0000816  98.4532 112.4704 15.73110776  2565,6728.15,91.538,350.564,349.466,0.0
53901.0,STARLINK-5024,PAYLOAD,2022-10-08 14:00:01,15.73104807,8.48e-05,53.2197,185.6008,103.3063,219.8324,0.0010105,0.0014305,0.0,0 STARLINK-5024,1 53901U 22119R   22281.58334491  .00143050  00000-0  10105-2 0  9997,2 53901  53.2197 185.6008 0000848 103.3063 219.8324 15.73104807  1300,6728.167,91.539,350.602,349.461,0.0
